{
    "links": {
        "self": "http://www.neowsapp.com/rest/v1/neo/3771618?api_key=iIulBulltgU6a56xZRHN4H3l9WmuAYTsLGpBGhQ2"
    },
    "id": "3771618",
    "neo_reference_id": "3771618",
    "name": "(2017 FK1)",
    "designation": "2017 FK1",
    "nasa_jpl_url": "http://ssd.jpl.nasa.gov/sbdb.cgi?sstr=3771618",
    "absolute_magnitude_h": 23.3,
    "estimated_diameter": {
        "kilometers": {
            "estimated_diameter_min": 0.058150704,
            "estimated_diameter_max": 0.130028927
        },
        "meters": {
            "estimated_diameter_min": 58.1507039646,
            "estimated_diameter_max": 130.0289270043
        },
        "miles": {
            "estimated_diameter_min": 0.0361331611,
            "estimated_diameter_max": 0.0807962044
        },
        "feet": {
            "estimated_diameter_min": 190.7831555951,
            "estimated_diameter_max": 426.6041048727
        }
    },
    "is_potentially_hazardous_asteroid": false,
    "close_approach_data": [
        {
            "close_approach_date": "2017-02-07",
            "close_approach_date_full": "2017-Feb-07 06:55",
            "epoch_date_close_approach": 1486450500000,
            "relative_velocity": {
                "kilometers_per_second": "3.9484592179",
                "kilometers_per_hour": "14214.4531845761",
                "miles_per_hour": "8832.3084246051"
            },
            "miss_distance": {
                "astronomical": "0.2343851147",
                "lunar": "91.1758096183",
                "kilometers": "35063513.918825689",
                "miles": "21787457.2513409482"
            },
            "orbiting_body": "Earth"
        }
    ],
    "orbital_data": {
        "orbit_id": "3",
        "orbit_determination_date": "2017-04-06 08:19:24",
        "first_observation_date": "2017-03-18",
        "last_observation_date": "2017-03-27",
        "data_arc_in_days": 9,
        "observations_used": 14,
        "orbit_uncertainty": "8",
        "minimum_orbit_intersection": ".220311",
        "jupiter_tisserand_invariant": "3.658",
        "epoch_osculation": "2457831.5",
        "eccentricity": ".4343931928112023",
        "semi_major_axis": "2.048830011698927",
        "inclination": "8.438785960593806",
        "ascending_node_longitude": "188.7724412860465",
        "orbital_period": "1071.167327826254",
        "perihelion_distance": "1.158832201389617",
        "perihelion_argument": "295.0601268589442",
        "aphelion_distance": "2.938827822008237",
        "perihelion_time": "2457772.319465326646",
        "mean_anomaly": "19.88950925682376",
        "mean_motion": ".3360819459743577",
        "equinox": "J2000",
        "orbit_class": {
            "orbit_class_type": "AMO",
            "orbit_class_description": "Near-Earth asteroid orbits similar to that of 1221 Amor",
            "orbit_class_range": "1.017 AU < q (perihelion) < 1.3 AU"
        }
    },
    "is_sentry_object": false
}